OBJECT_NAME,OBJECT_ID,EPOCH,MEAN_MOTION,ECCENTRICITY,INCLINATION,RA_OF_ASC_NODE,ARG_OF_PERICENTER,MEAN_ANOMALY,EPHEMERIS_TYPE,CLASSIFICATION_TYPE,NORAD_CAT_ID,ELEMENT_SET_NO,REV_AT_EPOCH,BSTAR,MEAN_MOTION_DOT,MEAN_MOTION_DDOT
STARLINK-11113 [DTC],2024-107C,2026-06-20T05:08:39.779520,15.69695581,.00017577,53.1592,105.4768,132.6494,227.4673,0,U,59947,999,11825,.47405074E-4,.5154E-4,0
STARLINK-11123 [DTC],2024-107D,2026-06-19T13:30:46.357056,15.69717709,.00011461,53.1593,109.2652,80.0668,280.0480,0,U,59948,999,11820,.11692512E-4,.828E-5,0
STARLINK-11138 [DTC],2024-107E,2026-06-19T13:02:31.249536,15.69710173,.00011452,53.1594,109.1296,97.1147,263.0001,0,U,59949,999,11820,.10406765E-4,.672E-5,0
STARLINK-11130 [DTC],2024-107F,2026-06-19T13:23:42.562464,15.69714113,.00009969,53.1596,109.2307,82.6324,277.4807,0,U,59950,999,11814,.21437014E-4,.201E-4,0
STARLINK-11124 [DTC],2024-107H,2026-06-20T05:58:06.784032,15.69708694,.00013824,53.1602,105.7137,90.8586,269.2591,0,U,59952,999,11832,.13259441E-4,.1017E-4,0
STARLINK-11133 [DTC],2024-107K,2026-06-20T05:36:56.012832,15.69700276,.00014197,53.1597,105.6103,87.9586,272.1594,0,U,59954,999,11825,-.12530081E-4,-.2106E-4,0
STARLINK-11144 [DTC],2024-107L,2026-06-19T23:23:06.787104,15.69715027,.00011679,53.1590,106.8434,94.6752,265.4399,0,U,59955,999,11827,.7973409E-5,.377E-5,0
STARLINK-11134 [DTC],2024-107M,2026-06-19T23:16:02.823168,15.69717345,.00008697,53.1596,106.8048,90.5366,269.5752,0,U,59956,999,11814,.393488E-6,-.541E-5,0
STARLINK-11142 [DTC],2024-107N,2026-06-20T05:15:43.429824,15.69712263,.00012344,53.1596,105.5163,100.4357,259.6800,0,U,59957,999,11826,.10673341E-4,.704E-5,0
STARLINK-31995,2024-107P,2026-06-19T19:19:21.404640,15.34054372,.00011472,53.1621,311.0121,47.7361,312.3739,0,U,59958,999,11423,.15161734E-2,.50635E-3,0
STARLINK-31989,2024-107Q,2026-06-19T15:38:28.204512,15.34412792,.0001043,53.1611,311.4817,92.1425,267.9697,0,U,59959,999,11541,.18394172E-3,.5846E-4,0
STARLINK-31856,2024-107R,2026-06-19T17:03:11.434464,15.34402066,.00011472,53.1597,311.1418,105.6424,254.4705,0,U,59960,999,11542,.6278891E-4,.1746E-4,0
STARLINK-31993,2024-107S,2026-06-20T02:47:10.836960,15.34390498,.00011916,53.1624,309.4009,85.9514,274.1625,0,U,59961,999,11542,.15595413E-4,.151E-5,0
STARLINK-31980,2024-107T,2026-06-19T17:06:12.807072,15.34399473,.00009362,53.1605,311.1466,70.7030,289.4074,0,U,59962,999,11542,.62475191E-4,.1735E-4,0
STARLINK-31991,2024-107U,2026-06-20T00:00:02.000160,15.34398095,.00013526,53.1599,310.0795,88.4661,280.3282,0,U,59963,999,582,-.47461893E-3,-.16377E-3,0
STARLINK-31979,2024-107V,2026-06-19T18:49:06.158784,15.34397282,.00010875,53.1617,310.8818,89.2077,270.9050,0,U,59964,999,11538,.50730163E-4,.1338E-4,0
STARLINK-31978,2024-111A,2026-06-20T03:36:36.075456,15.31700035,.00011673,53.1610,319.5039,88.8155,271.2981,0,U,60016,999,11462,-.4208132E-5,-.496E-5,0
STARLINK-31987,2024-111B,2026-06-19T16:45:35.549568,15.31713190,.00011003,53.1613,321.6598,82.2092,277.9035,0,U,60017,999,11461,-.26266751E-4,-.118E-4,0
STARLINK-31984,2024-111C,2026-06-20T02:52:57.756288,15.30200669,.00011805,53.1623,320.0157,83.3525,276.7610,0,U,60018,999,11456,-.58492377E-4,-.2091E-4,0
STARLINK-31986,2024-111D,2026-06-19T17:14:58.315200,15.30203802,.00008645,53.1611,321.7793,122.8019,237.3065,0,U,60019,999,11466,.25073209E-4,.384E-5,0
STARLINK-31883,2024-111E,2026-06-19T19:17:53.467584,15.30192911,.00008586,53.1590,321.6033,97.9955,262.1143,0,U,60020,999,11461,.5281907E-5,-.202E-5,0
STARLINK-31967,2024-111F,2026-06-19T17:32:54.075552,15.34396688,.0000943,53.1601,319.7318,89.9995,270.1116,0,U,60021,999,11469,.16906804E-4,.195E-5,0
STARLINK-31982,2024-111G,2026-06-20T02:46:36.406560,15.34369415,.00017498,53.1609,317.8694,42.8008,317.3130,0,U,60022,999,11475,.12967672E-3,.4003E-4,0
STARLINK-31992,2024-111H,2026-06-19T17:07:21.730080,15.30203744,.0001022,53.1605,321.7502,92.0814,268.0304,0,U,60023,999,11466,-.5934061E-5,-.535E-5,0
STARLINK-31990,2024-111J,2026-06-19T17:01:17.014080,15.30206391,.00011667,53.1614,321.7212,85.1616,274.9518,0,U,60024,999,11465,.2127104E-5,-.296E-5,0
STARLINK-31939,2024-111L,2026-06-19T19:49:35.884128,15.30222169,.00008139,53.1616,321.0275,84.1216,275.9878,0,U,60026,999,11467,.64629216E-4,.1557E-4,0
STARLINK-32012,2024-111M,2026-06-19T19:54:10.087488,15.30222074,.00011864,53.1625,321.0429,82.4132,277.7004,0,U,60027,999,11467,.13228557E-3,.3563E-4,0
STARLINK-32008,2024-111N,2026-06-19T20:00:16.421760,15.30205906,.00014728,53.1611,321.0676,79.4058,280.7109,0,U,60028,999,11467,.11797268E-3,.3137E-4,0
STARLINK-32006,2024-111P,2026-06-19T17:05:50.722368,15.30208203,.00012298,53.1620,321.7425,50.7049,309.4061,0,U,60029,999,11465,-.65620079E-4,-.2303E-4,0
STARLINK-32011,2024-111Q,2026-06-19T17:29:52.158624,15.34398292,.00025619,53.1614,319.7248,151.8669,208.2473,0,U,60030,999,11468,.11374813E-4,.7E-7,0
