STARLINK-11113 [DTC]    
1 59947U 24107C   26171.21434930  .00005154  00000+0  47405-4 0  9999
2 59947  53.1592 105.4768 0001757 132.6494 227.4673 15.69695581118254
STARLINK-11123 [DTC]    
1 59948U 24107D   26170.56303654  .00000828  00000+0  11693-4 0  9998
2 59948  53.1593 109.2652 0001146  80.0668 280.0480 15.69717709118204
STARLINK-11138 [DTC]    
1 59949U 24107E   26170.54341724  .00000672  00000+0  10407-4 0  9996
2 59949  53.1594 109.1296 0001145  97.1147 263.0001 15.69710173118207
STARLINK-11130 [DTC]    
1 59950U 24107F   26170.55813151  .00002010  00000+0  21437-4 0  9990
2 59950  53.1596 109.2307 0000996  82.6324 277.4807 15.69714113118148
STARLINK-11124 [DTC]    
1 59952U 24107H   26171.24868963  .00001017  00000+0  13259-4 0  9999
2 59952  53.1602 105.7137 0001382  90.8586 269.2591 15.69708694118327
STARLINK-11133 [DTC]    
1 59954U 24107K   26171.23398163 -.00002106  00000+0 -12530-4 0  9993
2 59954  53.1597 105.6103 0001419  87.9586 272.1594 15.69700276118258
STARLINK-11144 [DTC]    
1 59955U 24107L   26170.97438411  .00000377  00000+0  79734-5 0  9991
2 59955  53.1590 106.8434 0001167  94.6752 265.4399 15.69715027118272
STARLINK-11134 [DTC]    
1 59956U 24107M   26170.96947712 -.00000541  00000+0  39349-6 0  9993
2 59956  53.1596 106.8048 0000869  90.5366 269.5752 15.69717345118143
STARLINK-11142 [DTC]    
1 59957U 24107N   26171.21925266  .00000704  00000+0  10673-4 0  9990
2 59957  53.1596 105.5163 0001234 100.4357 259.6800 15.69712263118267
STARLINK-31995          
1 59958U 24107P   26170.80510885  .00050635  00000+0  15162-2 0  9996
2 59958  53.1621 311.0121 0001147  47.7361 312.3739 15.34054372114239
STARLINK-31989          
1 59959U 24107Q   26170.65171533  .00005846  00000+0  18394-3 0  9998
2 59959  53.1611 311.4817 0001043  92.1425 267.9697 15.34412792115418
STARLINK-31856          
1 59960U 24107R   26170.71054901  .00001746  00000+0  62789-4 0  9999
2 59960  53.1597 311.1418 0001147 105.6424 254.4705 15.34402066115426
STARLINK-31993          
1 59961U 24107S   26171.11609765  .00000151  00000+0  15595-4 0  9991
2 59961  53.1624 309.4009 0001191  85.9514 274.1625 15.34390498115428
STARLINK-31980          
1 59962U 24107T   26170.71264823  .00001735  00000+0  62475-4 0  9997
2 59962  53.1605 311.1466 0000936  70.7030 289.4074 15.34399473115425
STARLINK-31991          
1 59963U 24107U   26171.00002315 -.00016377  00000+0 -47462-3 0  9995
2 59963  53.1599 310.0795 0001352  88.4661 280.3282 15.34398095  5822
STARLINK-31979          
1 59964U 24107V   26170.78409906  .00001338  00000+0  50730-4 0  9999
2 59964  53.1617 310.8818 0001087  89.2077 270.9050 15.34397282115381
STARLINK-31978          
1 60016U 24111A   26171.15041754 -.00000496  00000+0 -42081-5 0  9996
2 60016  53.1610 319.5039 0001167  88.8155 271.2981 15.31700035114620
STARLINK-31987          
1 60017U 24111B   26170.69832812 -.00001180  00000+0 -26267-4 0  9996
2 60017  53.1613 321.6598 0001100  82.2092 277.9035 15.31713190114611
STARLINK-31984          
1 60018U 24111C   26171.12011292 -.00002091  00000+0 -58492-4 0  9994
2 60018  53.1623 320.0157 0001180  83.3525 276.7610 15.30200669114569
STARLINK-31986          
1 60019U 24111D   26170.71873050  .00000384  00000+0  25073-4 0  9997
2 60019  53.1611 321.7793 0000864 122.8019 237.3065 15.30203802114666
STARLINK-31883          
1 60020U 24111E   26170.80409106 -.00000202  00000+0  52819-5 0  9995
2 60020  53.1590 321.6033 0000858  97.9955 262.1143 15.30192911114610
STARLINK-31967          
1 60021U 24111F   26170.73118143  .00000195  00000+0  16907-4 0  9993
2 60021  53.1601 319.7318 0000943  89.9995 270.1116 15.34396688114696
STARLINK-31982          
1 60022U 24111G   26171.11569915  .00004003  00000+0  12968-3 0  9998
2 60022  53.1609 317.8694 0001749  42.8008 317.3130 15.34369415114754
STARLINK-31992          
1 60023U 24111H   26170.71344595 -.00000535  00000+0 -59341-5 0  9995
2 60023  53.1605 321.7502 0001022  92.0814 268.0304 15.30203744114662
STARLINK-31990          
1 60024U 24111J   26170.70922470 -.00000296  00000+0  21271-5 0  9993
2 60024  53.1614 321.7212 0001166  85.1616 274.9518 15.30206391114656
STARLINK-31939          
1 60026U 24111L   26170.82610977  .00001557  00000+0  64629-4 0  9997
2 60026  53.1616 321.0275 0000813  84.1216 275.9878 15.30222169114678
STARLINK-32012          
1 60027U 24111M   26170.82928342  .00003563  00000+0  13229-3 0  9994
2 60027  53.1625 321.0429 0001186  82.4132 277.7004 15.30222074114678
STARLINK-32008          
1 60028U 24111N   26170.83352340  .00003137  00000+0  11797-3 0  9990
2 60028  53.1611 321.0676 0001472  79.4058 280.7109 15.30205906114674
STARLINK-32006          
1 60029U 24111P   26170.71239262 -.00002303  00000+0 -65620-4 0  9996
2 60029  53.1620 321.7425 0001229  50.7049 309.4061 15.30208203114653
STARLINK-32011          
1 60030U 24111Q   26170.72907591  .00000007  00000+0  11375-4 0  9991
2 60030  53.1614 319.7248 0002561 151.8669 208.2473 15.34398292114687
